ASTERIA                 
1 43020U 98067NH  18324.41186107  .00017825  00000-0  19692-3 0  9998
2 43020  51.6417 307.5160 0003169  51.1668 308.9609 15.63128691 56898
DELLINGR (RBLE)         
1 43021U 98067NJ  18324.45486033  .00008968  00000-0  11628-3 0  9993
2 43021  51.6395 311.4957 0003000  41.3442 318.7778 15.59690978 56845
OSIRIS-3U               
1 43027U 98067NL  18324.34898408  .00081075  00000-0  49222-3 0  9991
2 43027  51.6359 294.1683 0005206  63.3531 296.8002 15.76786361 56945
AEROCUBE 7B             
1 43042U 17071F   18324.51554555  .00003655  00000-0  10057-3 0  9997
2 43042  51.6398 359.3989 0005341 109.7324 250.4237 15.39836014 53687
AEROCUBE 7C             
1 43043U 17071G   18323.93125229  .00002567  00000-0  73634-4 0  9997
2 43043  51.6403   2.2559 0005428 109.2949 250.8623 15.39833591 53563
CHEFSAT                 
1 43044U 17071H   18324.14323908  .00005685  00000-0  14341-3 0  9999
2 43044  51.6404 359.2252 0005235 108.2675 251.8880 15.41394955 53623
ASGARDIA 1              
1 43049U 17071N   18324.22419579  .00003334  00000-0  92269-4 0  9998
2 43049  51.6404   0.4750 0002837 124.3577 235.7676 15.39954148 53606
ISARA                   
1 43050U 17071P   18324.16725561  .00005907  00000-0  15005-3 0  9994
2 43050  51.6398 359.3679 0002634 119.0898 241.0351 15.41100827 53619
FAUNA                   
1 43052U 17071R   18324.45612291  .00003659  00000-0  99673-4 0  9999
2 43052  51.6406 359.0368 0002781 120.9930 239.1328 15.40144804 53641
CORVUS BC3              
1 43118U 18004H   18323.85379880  .00000885  00000-0  41252-4 0  9994
2 43118  97.5155  26.6103 0008953 270.5478  89.4733 15.22503368 47399
MICROMAS-2A             
1 43131U 18004W   18323.87447911  .00001973  00000-0  86055-4 0  9991
2 43131  97.5169  26.9242 0008069 273.4709  86.5605 15.23354069 47415
GOMX4-B                 
1 43196U 18015E   18324.24457728  .00000305  00000-0  15584-4 0  9990
2 43196  97.3657  90.1801 0018797 332.7665  27.2583 15.23756414 44299
GOMX4-A                 
1 43197U 18015F   18324.44354973  .00000318  00000-0  16081-4 0  9998
2 43197  97.3665  90.3838 0018596 333.3360  69.2999 15.23827518 44333
1KUNS-PF                
1 43466U 98067NP  18324.42963300  .00015537  00000-0  19957-3 0  9993
2 43466  51.6393 315.8176 0001483  48.3593 311.7526 15.59300792 30044
UBAKUSAT                
1 43467U 98067NQ  18324.41616535  .00011444  00000-0  15469-3 0  9995
2 43467  51.6387 316.4787 0003073  13.0937 347.0135 15.58249529 30048
BATSU-CS1 (IRAZU)       
1 43468U 98067NR  18324.19153298  .00019255  00000-0  23837-3 0  9999
2 43468  51.6392 316.4773 0001495  48.7007 311.4115 15.60102266130008
CUBERRT                 
1 43546U 98067NU  18324.44808618  .00024323  00000-0  32912-3 0  9993
2 43546  51.6392 318.1823 0006786  60.7873 299.3797 15.57554016 20157
TEMPEST-D               
1 43547U 98067NV  18324.56091690  .00004478  00000-0  70559-4 0  9990
2 43547  51.6393 318.1819 0006653  60.0056 300.1594 15.55793170 19847
RAINCUBE                
1 43548U 98067NW  18323.57197067  .00010287  00000-0  14775-3 0  9998
2 43548  51.6393 322.8283 0006752  64.5018 295.6671 15.56726123 20146
HALOSAT                 
1 43549U 98067NX  18323.44416465  .00010017  00000-0  14405-3 0  9992
2 43549  51.6395 323.4759 0006712  65.7922 294.3771 15.56728545 19681
ENDUROSAT ONE           
1 43551U 98067NZ  18324.18034937  .00013188  00000-0  18324-3 0  9993
2 43551  51.6388 319.3903 0007324  73.8855 286.2943 15.57333145 20217
EQUISAT                 
1 43552U 98067PA  18324.44814629  .00011744  00000-0  16587-3 0  9992
2 43552  51.6390 318.1813 0007486  75.6968 284.4855 15.57015371 20212
AEROCUBE 12A            
1 43556U 18046C   18324.56385730  .00000629  00000-0  35524-4 0  9997
2 43556  51.6434 344.0814 0009002  41.9351 318.2317 15.28031297 19425
AEROCUBE 12B            
1 43557U 18046D   18324.50005998  .00000588  00000-0  34059-4 0  9993
2 43557  51.6434 344.4046 0009011  41.7096 318.4569 15.27985201 19367
UITMSAT-1               
1 43589U 98067PD  18323.85233440  .00011722  00000-0  16789-3 0  9992
2 43589  51.6389 321.6978 0006845  80.5033 279.6732 15.56641809 15851
MAYA-1                  
1 43590U 98067PE  18324.42830298  .00011926  00000-0  17043-3 0  9992
2 43590  51.6388 318.7949 0006927  83.2982 276.8798 15.56681266 15875
BHUTAN-1                
1 43591U 98067PF  18324.36153704  .00012103  00000-0  17260-3 0  9995
2 43591  51.6391 319.0992 0006993  84.3206 275.8583 15.56722745 15864
SIRIUSSAT-1             
1 43595U 98067PG  18324.19895422  .00012466  00000-0  18083-3 0  9996
2 43595  51.6390 320.2589 0004565  42.9624 317.1724 15.56235487 15016
SIRIUSSAT-2             
1 43596U 98067PH  18324.20786131  .00012459  00000-0  18174-3 0  9998
2 43596  51.6401 320.3279 0005244  44.8932 315.2482 15.56080796 15016
TANUSHA-3               
1 43597U 98067PJ  18323.87626951  .00013847  00000-0  19851-3 0  9999
2 43597  51.6378 321.8447 0004823  54.5413 305.6028 15.56446765 14961
SURFSAT                 
1 43614U 18070B   18323.91509740  .00002207  00000-0  61854-4 0  9995
2 43614  93.0329 276.5241 0019045  44.4026 315.8745 15.36518102 10031
CP-7 (DAVE)             
1 43615U 18070C   18323.91485497  .00002042  00000-0  57257-4 0  9997
2 43615  93.0323 276.5239 0019023  44.0359 316.2387 15.36515558 10033
ELFIN-B                 
1 43616U 18070D   18323.65045704 -.00000006  00000-0  00000-0 0  9991
2 43616  93.0308 276.3844 0020348  49.3539 310.9563 15.36658523  9997
ELFIN-A                 
1 43617U 18070E   18324.36545990 -.00000006  00000-0  00000+0 0  9992
2 43617  93.0376 276.7352 0019264  42.3363 317.9573 15.36696797 10102
DEBRISSAT-1             
1 43621U 98067PM  18324.24109687  .00063304  00000-0  69653-3 0  9999
2 43621  51.6469 318.3277 0009320  55.2373 304.9514 15.62496528 10037
CUBEBEL-1 (BSUSAT-1)    
1 43666U 18083E   18324.45301675  .00000977  00000-0  52619-4 0  9994
2 43666  97.5388 345.2147 0014610 192.4894 276.6968 15.17133580  3407
DEBRISSAT-2             
1 43680U 98067PR  18323.99064073  .00011396  00000-0  16768-3 0  9997
2 43680  51.6412 321.1101 0004614  69.3764 290.7729 15.55948730 23728
